[{"OBJECT_NAME":"STARLINK-35465","OBJECT_ID":"2025-223T","EPOCH":"2026-03-09T22:28:14.722464","MEAN_MOTION":15.30212263,"ECCENTRICITY":9.687e-5,"INCLINATION":53.1599,"RA_OF_ASC_NODE":293.0143,"ARG_OF_PERICENTER":105.5144,"MEAN_ANOMALY":254.5964,"EPHEMERIS_TYPE":0,"CLASSIFICATION_TYPE":"U","NORAD_CAT_ID":65871,"ELEMENT_SET_NO":999,"REV_AT_EPOCH":2424,"BSTAR":0.00088025211,"MEAN_MOTION_DOT":0.00025812,"MEAN_MOTION_DDOT":0},{"OBJECT_NAME":"KUIPER-00222","OBJECT_ID":"2026-030U","EPOCH":"2026-03-09T16:13:57.726048","MEAN_MOTION":15.32445377,"ECCENTRICITY":0.00128002,"INCLINATION":51.8817,"RA_OF_ASC_NODE":219.7147,"ARG_OF_PERICENTER":40.1845,"MEAN_ANOMALY":320.0084,"EPHEMERIS_TYPE":0,"CLASSIFICATION_TYPE":"U","NORAD_CAT_ID":67782,"ELEMENT_SET_NO":999,"REV_AT_EPOCH":508,"BSTAR":0.0017317201,"MEAN_MOTION_DOT":0.00055223,"MEAN_MOTION_DDOT":0}]
